STARLINK-32288          
1 60943U 24155V   24251.50001157 -.00924757  26624-3 -26859-2 0  9993
2 60943  53.1632 165.5885 0000572 124.4225 332.0468 15.92222352  2221
STARLINK-32276          
1 60944U 24155W   24250.83334491 -.00939264  27747-3 -25432-2 0  9991
2 60944  53.1646 168.9829 0000574  93.7634 140.0875 15.93562176  2216
YAOGAN-43 02A           
1 60945U 24156A   24251.62583623  .00058896  00000+0  23682-2 0  9999
2 60945  35.0001 311.0698 0008511 297.5179  62.4670 15.23791523   708
YAOGAN-43 02B           
1 60946U 24156B   24251.62533749  .00042043  00000+0  16882-2 0  9995
2 60946  34.9978 311.0671 0010066 300.1768  59.7949 15.23909511   654
YAOGAN-43 02C           
1 60947U 24156C   24251.62536008  .00029869  00000+0  12041-2 0  9991
2 60947  35.0006 311.0700 0009946 305.8485  54.1306 15.23845483   658
YAOGAN-43 02D           
1 60948U 24156D   24251.62564550  .00032748  00000+0  13227-2 0  9992
2 60948  34.9954 311.0709 0009961 298.8378  61.1337 15.23764594   652
YAOGAN-43 02E           
1 60949U 24156E   24251.62597951  .00058933  00000+0  23731-2 0  9999
2 60949  34.9973 311.0719 0008167 295.8557  64.1316 15.23745630   658
YAOGAN-43 02F           
1 60950U 24156F   24251.62636430  .00032695  00000+0  13307-2 0  9992
2 60950  34.9950 311.0768 0008827 294.0673  65.9118 15.23517905   653
CZ-4B R/B               
1 60951U 24156G   24250.59100874  .00070324  00000+0  11769-2 0  9997
2 60951  35.0019 316.8100 0088994  30.4635 330.1218 15.46268014   543
BINAR-4                 
1 60952U 98067WS  24251.33831533  .00178149  00000+0  28203-2 0  9991
2 60952  51.6368 268.2773 0012842 336.1323  23.9070 15.52204502  1396
COSMOGIRLSAT            
1 60953U 98067WT  24251.40347204  .00125611  00000+0  20377-2 0  9997
2 60953  51.6372 267.9623 0013803 333.3079  26.7199 15.51723329  1404
SAKURA                  
1 60954U 98067WU  24251.20967508  .00140239  00000+0  22557-2 0  9996
2 60954  51.6370 268.9180 0013785 333.5452  26.4833 15.51899715  1379
1998-067WV              
1 60955U 98067WV  24251.46311317  .00251328  00000+0  37553-2 0  9990
2 60955  51.6366 267.6109 0012772 337.4222  22.6205 15.53532324  1413
BINAR-2                 
1 60956U 98067WW  24251.33765600  .00161090  00000+0  25464-2 0  9999
2 60956  51.6360 268.2727 0012933 335.9260  24.1124 15.52312053  1382
BINAR-3                 
1 60957U 98067WX  24251.53062625  .00183155  00000+0  28632-2 0  9995
2 60957  51.6366 267.3112 0012858 337.3162  22.7258 15.52535451  3406
1998-067WY              
1 60958U 98067WY  24250.56640302  .00109713  00000+0  18024-2 0  9994
2 60958  51.6373 272.1225 0013841 329.7167  30.3022 15.51440550  1267
SENTINEL-2C             
1 60989U 24157A   24251.10030262 -.00000485  00000+0 -15798-3 0  9990
2 60989  98.5743 324.0437 0001254  40.3961 319.7316 14.33990493   294
2024-159A               
1 61011U 24159A   24250.10111612 -.00000270  00000+0  00000+0 0  9994
2 61011  49.9986 238.9179 0009398 250.0732 197.9299 15.01917429    42
2024-159B               
1 61012U 24159B   24250.10780561 -.00000270  00000+0  00000+0 0  9990
2 61012  49.9940 238.8912 0009248 250.2823 234.0998 15.02064901    42
2024-159C               
1 61013U 24159C   24250.10816374 -.00000271  00000+0  00000+0 0  9994
2 61013  49.9894 238.8845 0009032 260.6349 225.9449 15.02295227   783
2024-159D               
1 61014U 24159D   24250.10099793 -.00000271  00000+0  00000+0 0  9993
2 61014  50.0028 238.9229 0008935 257.6258 190.3053 15.02393407    76
2024-159E               
1 61015U 24159E   24250.10193606 -.00000271  00000+0  00000+0 0  9992
2 61015  49.9956 238.9127 0008148 269.1265 183.9303 15.02480256    23
2024-159F               
1 61016U 24159F   24250.10205284 -.00000271  00000+0  00000+0 0  9999
2 61016  50.0020 238.9152 0008857 262.0021 191.7027 15.02462162    11
2024-159G               
1 61017U 24159G   24250.10282199 -.00000271  00000+0  00000+0 0  9990
2 61017  49.9910 238.9092 0008524 263.3905 194.5314 15.02509239    13
2024-159H               
1 61018U 24159H   24250.10112801 -.00000272  00000+0  00000+0 0  9994
2 61018  50.0013 238.9138 0008561 266.0024 182.8608 15.02615713    16
2024-159J               
1 61019U 24159J   24250.10102684 -.00000272  00000+0  00000+0 0  9993
2 61019  49.9947 238.9168 0009870 272.5053 175.8162 15.02621152    12
2024-159K               
1 61020U 24159K   24250.10785027 -.00000272  00000+0  00000+0 0  9993
2 61020  49.9969 238.8848 0009665 268.0469 217.2593 15.02657501    22
NOAA 1                  
1 04793U 70106A   24250.63696282 -.00000010  00000+0  20623-3 0  9999
2 04793 101.4387 299.9683 0031729 176.9875 300.4587 12.54032158459398
NOAA 2 (ITOS-D)         
1 06235U 72082A   24250.98783253 -.00000027  00000+0  12296-3 0  9995
2 06235 102.0205 250.9137 0003950 331.0163  84.9782 12.53185588373983
NOAA 3                  
1 06920U 73086A   24250.98475307 -.00000027  00000+0  14431-3 0  9992
2 06920 102.2820 247.6981 0006170 235.1509 180.6658 12.40371111301728
NOAA 4                  
1 07529U 74089A   24250.57767716 -.00000030  00000+0  10361-3 0  9997
2 07529 101.9938 245.6032 0009087 355.8437 115.2803 12.53183757278275
NOAA 5                  
1 09057U 76077A   24250.51377573 -.00000017  00000+0  21633-3 0  9995
2 09057 102.2164 223.8207 0010087  85.2764  23.3448 12.37804919174214
TIROS N                 
1 11060U 78096A   24250.72811033  .00000732  00000+0  37151-3 0  9997
2 11060  98.5264 288.0560 0009703 324.9806  35.0731 14.18911123587015
NOAA 6                  
1 11416U 79057A   24250.64578846  .00001432  00000+0  52141-3 0  9997
2 11416  98.6269 271.7689 0010416  26.1896 333.9813 14.34682837358146
NOAA 7                  
1 12553U 81059A   24251.42228104  .00000340  00000+0  18956-3 0  9994
2 12553  98.8859 310.7946 0010782 323.9440  36.1006 14.17572144233187
NOAA 8                  
1 13923U 83022A   24250.97893327  .00000827  00000+0  34200-3 0  9992
2 13923  98.7346 251.1074 0014881 358.8681   1.2464 14.29341728158718
NOAA 9                  
1 15427U 84123A   24250.61765154  .00000707  00000+0  37708-3 0  9996
2 15427  99.1229 250.0701 0015264  29.7320  79.2498 14.16675346 51579
NOAA 10                 
1 16969U 86073A   24250.59739392  .00000804  00000+0  33668-3 0  9995
2 16969  98.6484 235.7958 0013340  93.4131  18.5336 14.28709741976778
NOAA 11                 
1 19531U 88089A   24251.13872362  .00000439  00000+0  24537-3 0  9997
2 19531  98.5268 210.1227 0011227   5.3598 354.7695 14.15586092856039
NOAA 12                 
1 21263U 91032A   24250.57907021  .00000593  00000+0  26441-3 0  9999
2 21263  98.5647 239.8853 0014736 121.2544 239.0082 14.26382894732488
NOAA 13                 
1 22739U 93050A   24251.13002835  .00000634  00000+0  36065-3 0  9991
2 22739  98.6137 205.5509 0009468 172.5160 187.6156 14.13288997602064
NOAA 14                 
1 23455U 94089A   24251.22044535  .00000382  00000+0  22060-3 0  9993
2 23455  98.4388 242.7010 0010192 140.8976 219.2937 14.14439826531830
NOAA 15                 
1 25338U 98030A   24251.50443683  .00000848  00000+0  36827-3 0  9996
2 25338  98.5652 276.9020 0011469  85.4650 274.7841 14.26696236369177
NOAA 16                 
1 26536U 00055A   24251.11804913  .00000416  00000+0  24244-3 0  9992
2 26536  98.5255 286.9483 0010472   7.6941 352.4392 14.13637322235650
NOAA 17                 
1 27453U 02032A   24251.18410002  .00000974  00000+0  42923-3 0  9990
2 27453  98.7695 201.7580 0012881  72.3044 287.9541 14.25683927154643
NOAA 18                 
1 28654U 05018A   24251.47468138  .00000847  00000+0  47476-3 0  9993
2 28654  98.8696 327.7430 0014251 186.0763 174.0238 14.13315948994885
NOAA 19                 
1 33591U 09005A   24251.43787652  .00000705  00000+0  40133-3 0  9996
2 33591  99.0396 308.0808 0014629  63.0162 297.2502 14.13107082803247
SUOMI NPP               
1 37849U 11061A   24251.50977393  .00000562  00000+0  28722-3 0  9993
2 37849  98.7245 188.2612 0001783  60.0371 300.0982 14.19569008666544
NOAA 20 (JPSS-1)        
1 43013U 17073A   24251.52644516  .00000515  00000+0  26492-3 0  9992
2 43013  98.7087 188.0758 0001604  35.2214 324.9068 14.19580110352582
NOAA 21 (JPSS-2)        
1 54234U 22150A   24250.57573921  .00000543  00000+0  27847-3 0  9992
2 54234  98.7540 187.5245 0000412  67.7351 292.3869 14.19569565 94521
ISS (ZARYA)             
1 25544U 98067A   24251.50686233  .00032814  00000+0  60758-3 0  9993
2 25544  51.6389 267.5581 0007056 323.5900 201.5975 15.48680455471319
CSS (TIANHE)            
1 48274U 21035A   24251.52431550  .00076633  00000+0  80158-3 0  9994
2 48274  41.4690 301.2515 0001422  41.4702 318.6245 15.63456391191974
ISS (NAUKA)             
1 49044U 21066A   24250.52672295  .00047651  00000+0  87835-3 0  9993
2 49044  51.6407 272.4053 0007289 316.6156 140.5680 15.48632070471005
FREGAT DEB              
1 49271U 11037PF  24250.60615699  .00000318  00000+0  97513-3 0  9999
2 49271  51.6551 113.1800 0927360 302.6351  48.8271 12.20320566145130
CSS (WENTIAN)           
1 53239U 22085A   24250.50223210  .00072542  00000+0  76389-3 0  9992
2 53239  41.4694 307.4965 0001575  25.9430 334.1489 15.63305428189004
CSS (MENGTIAN)          
1 54216U 22143A   24250.50223210  .00072542  00000+0  76389-3 0  9993
2 54216  41.4694 307.4965 0001575  25.9430 334.1489 15.63305428103837
TIANZHOU-7              
1 58811U 24013A   24250.50223210  .00072542  00000+0  76389-3 0  9996
2 58811  41.4694 307.4965 0001575  25.9430 334.1489 15.63305428159923
CREW DRAGON 8           
1 59097U 24042A   24250.52672295  .00047651  00000+0  87835-3 0  9999
2 59097  51.6407 272.4053 0007289 316.6156 140.5680 15.48632070471004
